{"type": "FeatureCollection","features": [{"type": "Feature", "geometry": {"type":"Point","coordinates":[11.4353554,48.151004]}, "properties": {"osm_id": 186969956, "osm_type": "nodes", "amenity": "pharmacy", "name": "Hellenstein Apotheke"}},{"type": "Feature", "geometry": {"type":"Point","coordinates":[11.5689096,48.1114535]}, "properties": {"osm_id": 6281618478, "osm_type": "nodes", "amenity": "pharmacy", "name": "Bienen-Apotheke Candidplatz"}},{"type": "Feature", "geometry": {"type":"Point","coordinates":[11.4345377,48.1492335]}, "properties": {"osm_id": 201758605, "osm_type": "nodes", "amenity": "pharmacy", "name": "Westkreuz-Apotheke"}},{"type": "Feature", "geometry": {"type":"Point","coordinates":[11.5115377,48.1651489]}, "properties": {"osm_id": 2132121908, "osm_type": "nodes", "amenity": "pharmacy", "name": "Volpini-Apotheke"}},{"type": "Feature", "geometry": {"type":"Point","coordinates":[11.5940245,48.1826499]}, "properties": {"osm_id": 370758635, "osm_type": "nodes", "amenity": "pharmacy", "name": "Parkstadt Apotheke"}},{"type": "Feature", "geometry": {"type":"Point","coordinates":[11.5949797,48.1732215]}, "properties": {"osm_id": 345843656, "osm_type": "nodes", "amenity": "pharmacy", "name": "Apotheke an der Berliner Straße"}},{"type": "Feature", "geometry": {"type":"Point","coordinates":[11.4786736,48.1148791]}, "properties": {"osm_id": 2452065777, "osm_type": "nodes", "amenity": "pharmacy", "name": "Mary's Apotheke Großhadern"}},{"type": "Feature", "geometry": {"type":"Point","coordinates":[11.4788299,48.1136528]}, "properties": {"osm_id": 677214283, "osm_type": "nodes", "amenity": "pharmacy", "name": "Pasteur Apotheke"}},{"type": "Feature", "geometry": {"type":"Point","coordinates":[11.4778376,48.108495]}, "properties": {"osm_id": 418955857, "osm_type": "nodes", "amenity": "pharmacy", "name": "Montessori Apotheke"}},{"type": "Feature", "geometry": {"type":"Point","coordinates":[11.5476974,48.1370581]}, "properties": {"osm_id": 5887535405, "osm_type": "nodes", "amenity": "pharmacy", "name": "Apotheke im Forum Schwanthalerhöhe"}},{"type": "Feature", "geometry": {"type":"Point","coordinates":[11.6365367,48.1778882]}, "properties": {"osm_id": 1476261933, "osm_type": "nodes", "amenity": "pharmacy", "name": null}},{"type": "Feature", "geometry": {"type":"Point","coordinates":[11.495939,48.1400611]}, "properties": {"osm_id": 1144619694, "osm_type": "nodes", "amenity": "pharmacy", "name": "Agricola Apotheke"}},{"type": "Feature", "geometry": {"type":"Point","coordinates":[11.4612156,48.1477547]}, "properties": {"osm_id": 1617814674, "osm_type": "nodes", "amenity": "pharmacy", "name": "Apotheke am Pasinger Markt"}},{"type": "Feature", "geometry": {"type":"Point","coordinates":[11.5738358,48.136499]}, "properties": {"osm_id": 305433469, "osm_type": "nodes", "amenity": "pharmacy", "name": "Rosenapotheke"}},{"type": "Feature", "geometry": {"type":"Point","coordinates":[11.5751962,48.1284835]}, "properties": {"osm_id": 305516486, "osm_type": "nodes", "amenity": "pharmacy", "name": "Fraunhofer Apotheke"}},{"type": "Feature", "geometry": {"type":"Point","coordinates":[11.5787815,48.1345857]}, "properties": {"osm_id": 305265451, "osm_type": "nodes", "amenity": "pharmacy", "name": "Bio-Apotheke"}},{"type": "Feature", "geometry": {"type":"Point","coordinates":[11.5652632,48.1336954]}, "properties": {"osm_id": 305449498, "osm_type": "nodes", "amenity": "pharmacy", "name": "Marien Apotheke"}},{"type": "Feature", "geometry": {"type":"Point","coordinates":[11.5653205,48.1326174]}, "properties": {"osm_id": 669542863, "osm_type": "nodes", "amenity": "pharmacy", "name": "ergonomic care mein sanitätshaus"}},{"type": "Feature", "geometry": {"type":"Point","coordinates":[11.6567215,48.1169152]}, "properties": {"osm_id": 280079113, "osm_type": "nodes", "amenity": "pharmacy", "name": "Augustinus-Apotheke"}},{"type": "Feature", "geometry": {"type":"Point","coordinates":[11.5729916,48.1865861]}, "properties": {"osm_id": 450517363, "osm_type": "nodes", "amenity": "pharmacy", "name": "Delphin Apotheke"}},{"type": "Feature", "geometry": {"type":"Point","coordinates":[11.4157407,48.1575318]}, "properties": {"osm_id": 3294246861, "osm_type": "nodes", "amenity": "pharmacy", "name": "St. Alto Apotheke"}},{"type": "Feature", "geometry": {"type":"Point","coordinates":[11.5686609,48.1343951]}, "properties": {"osm_id": 11584775577, "osm_type": "nodes", "amenity": "pharmacy", "name": "Medicus Apotheke"}},{"type": "Feature", "geometry": {"type":"Point","coordinates":[11.5594014,48.1291305]}, "properties": {"osm_id": 11171730143, "osm_type": "nodes", "amenity": "pharmacy", "name": "Stachus Apotheke am Goetheplatz"}},{"type": "Feature", "geometry": {"type":"Point","coordinates":[11.524714,48.1338206]}, "properties": {"osm_id": 9280872840, "osm_type": "nodes", "amenity": "pharmacy", "name": "MUC Apotheke"}},{"type": "Feature", "geometry": {"type":"Point","coordinates":[11.4235988,48.1437963]}, "properties": {"osm_id": 2625126359, "osm_type": "nodes", "amenity": "pharmacy", "name": "Münchner Kindl Apotheke"}},{"type": "Feature", "geometry": {"type":"Point","coordinates":[11.572988,48.1606449]}, "properties": {"osm_id": 417637009, "osm_type": "nodes", "amenity": "pharmacy", "name": "St. Raphael-Apotheke"}},{"type": "Feature", "geometry": {"type":"Point","coordinates":[11.5856934,48.1620681]}, "properties": {"osm_id": 338174988, "osm_type": "nodes", "amenity": "pharmacy", "name": "Feilitzsch-Apotheke"}},{"type": "Feature", "geometry": {"type":"Point","coordinates":[11.5929885,48.1287125]}, "properties": {"osm_id": 259759836, "osm_type": "nodes", "amenity": "pharmacy", "name": "Hall'sche Apotheke"}},{"type": "Feature", "geometry": {"type":"Point","coordinates":[11.5950893,48.1110513]}, "properties": {"osm_id": 345197821, "osm_type": "nodes", "amenity": "pharmacy", "name": "aquila Apotheke"}},{"type": "Feature", "geometry": {"type":"Point","coordinates":[11.5668424,48.1549323]}, "properties": {"osm_id": 6389119853, "osm_type": "nodes", "amenity": "pharmacy", "name": "Vitalcenter"}},{"type": "Feature", "geometry": {"type":"Point","coordinates":[11.5689171,48.161091]}, "properties": {"osm_id": 247675872, "osm_type": "nodes", "amenity": "pharmacy", "name": "Spitzweg Apotheke"}},{"type": "Feature", "geometry": {"type":"Point","coordinates":[11.5717944,48.1355355]}, "properties": {"osm_id": 2093487719, "osm_type": "nodes", "amenity": "pharmacy", "name": "Adler Apotheke"}},{"type": "Feature", "geometry": {"type":"Point","coordinates":[11.5271542,48.1161851]}, "properties": {"osm_id": 313284026, "osm_type": "nodes", "amenity": "pharmacy", "name": "Eichendorff-Apotheke"}},{"type": "Feature", "geometry": {"type":"Point","coordinates":[11.552924,48.1823939]}, "properties": {"osm_id": 372886817, "osm_type": "nodes", "amenity": "pharmacy", "name": "Apotheke am Forum"}},{"type": "Feature", "geometry": {"type":"Point","coordinates":[11.6292798,48.1010471]}, "properties": {"osm_id": 3969440968, "osm_type": "nodes", "amenity": "pharmacy", "name": "Merkur-Apotheke"}},{"type": "Feature", "geometry": {"type":"Point","coordinates":[11.5602942,48.1448046]}, "properties": {"osm_id": 315969674, "osm_type": "nodes", "amenity": "pharmacy", "name": "St. Antonius Apotheke"}},{"type": "Feature", "geometry": {"type":"Point","coordinates":[11.6415204,48.1580888]}, "properties": {"osm_id": 2627559085, "osm_type": "nodes", "amenity": "pharmacy", "name": "Fidelio Apotheke"}},{"type": "Feature", "geometry": {"type":"Point","coordinates":[11.6296624,48.1633221]}, "properties": {"osm_id": 7656859326, "osm_type": "nodes", "amenity": "pharmacy", "name": "Eugen Apotheke"}},{"type": "Feature", "geometry": {"type":"Point","coordinates":[11.5636112,48.212194]}, "properties": {"osm_id": 258170403, "osm_type": "nodes", "amenity": "pharmacy", "name": "Vitale"}},{"type": "Feature", "geometry": {"type":"Point","coordinates":[11.4594841,48.1920962]}, "properties": {"osm_id": 1829120655, "osm_type": "nodes", "amenity": "pharmacy", "name": "Igel Apotheke"}},{"type": "Feature", "geometry": {"type":"Point","coordinates":[11.5492446,48.1495873]}, "properties": {"osm_id": 315935280, "osm_type": "nodes", "amenity": "pharmacy", "name": "Lori-Apotheke"}},{"type": "Feature", "geometry": {"type":"Point","coordinates":[11.5433611,48.1597998]}, "properties": {"osm_id": 606964148, "osm_type": "nodes", "amenity": "pharmacy", "name": "Dom-Pedro-Apotheke"}},{"type": "Feature", "geometry": {"type":"Point","coordinates":[11.5433843,48.1629991]}, "properties": {"osm_id": 1138011589, "osm_type": "nodes", "amenity": "pharmacy", "name": "Helios-Apotheke"}},{"type": "Feature", "geometry": {"type":"Point","coordinates":[11.603541,48.1096657]}, "properties": {"osm_id": 260433737, "osm_type": "nodes", "amenity": "pharmacy", "name": "Bernhard-Apotheke"}},{"type": "Feature", "geometry": {"type":"Point","coordinates":[11.5126155,48.1558391]}, "properties": {"osm_id": 835352685, "osm_type": "nodes", "amenity": "pharmacy", "name": "Nymphenburger Apotheke"}},{"type": "Feature", "geometry": {"type":"Point","coordinates":[11.5073512,48.15245]}, "properties": {"osm_id": 392551861, "osm_type": "nodes", "amenity": "pharmacy", "name": "Hirschgarten-Apotheke"}},{"type": "Feature", "geometry": {"type":"Point","coordinates":[11.5130156,48.1799224]}, "properties": {"osm_id": 741558337, "osm_type": "nodes", "amenity": "pharmacy", "name": "Schworm Apotheke"}},{"type": "Feature", "geometry": {"type":"Point","coordinates":[11.5087072,48.1812306]}, "properties": {"osm_id": 1752165346, "osm_type": "nodes", "amenity": "pharmacy", "name": "Pelkoven Apotheke"}},{"type": "Feature", "geometry": {"type":"Point","coordinates":[11.563269,48.1596195]}, "properties": {"osm_id": 366122293, "osm_type": "nodes", "amenity": "pharmacy", "name": "Karlstadt Apotheke"}},{"type": "Feature", "geometry": {"type":"Point","coordinates":[11.6018382,48.1496886]}, "properties": {"osm_id": 1405097373, "osm_type": "nodes", "amenity": "pharmacy", "name": "Apotheke am Kufsteiner Platz"}},{"type": "Feature", "geometry": {"type":"Point","coordinates":[11.5291893,48.1636359]}, "properties": {"osm_id": 296133706, "osm_type": "nodes", "amenity": "pharmacy", "name": "Dante-Apotheke"}},{"type": "Feature", "geometry": {"type":"Point","coordinates":[11.5260818,48.1530212]}, "properties": {"osm_id": 2449105854, "osm_type": "nodes", "amenity": "pharmacy", "name": "Benno Apotheke"}},{"type": "Feature", "geometry": {"type":"Point","coordinates":[11.6089853,48.1511081]}, "properties": {"osm_id": 344498800, "osm_type": "nodes", "amenity": "pharmacy", "name": "Arnika-Apotheke"}},{"type": "Feature", "geometry": {"type":"Point","coordinates":[11.6015986,48.1440601]}, "properties": {"osm_id": 5630812251, "osm_type": "nodes", "amenity": "pharmacy", "name": "Luitpold-Apotheke"}},{"type": "Feature", "geometry": {"type":"Point","coordinates":[11.5731759,48.0947303]}, "properties": {"osm_id": 318646776, "osm_type": "nodes", "amenity": "pharmacy", "name": "Nauplia-Apotheke"}},{"type": "Feature", "geometry": {"type":"Point","coordinates":[11.6033663,48.1083066]}, "properties": {"osm_id": 260433537, "osm_type": "nodes", "amenity": "pharmacy", "name": "Chiemgau Apotheke"}},{"type": "Feature", "geometry": {"type":"Point","coordinates":[11.5953762,48.1103392]}, "properties": {"osm_id": 3386282119, "osm_type": "nodes", "amenity": "pharmacy", "name": "Bienen-Apotheke"}},{"type": "Feature", "geometry": {"type":"Point","coordinates":[11.5741697,48.1757795]}, "properties": {"osm_id": 339140598, "osm_type": "nodes", "amenity": "pharmacy", "name": "St. Mauritius-Apotheke"}},{"type": "Feature", "geometry": {"type":"Point","coordinates":[11.5738362,48.120223]}, "properties": {"osm_id": 522196046, "osm_type": "nodes", "amenity": "pharmacy", "name": "Humboldt-Apotheke"}},{"type": "Feature", "geometry": {"type":"Point","coordinates":[11.5475107,48.1584205]}, "properties": {"osm_id": 335741155, "osm_type": "nodes", "amenity": "pharmacy", "name": "Leonrod Apotheke"}},{"type": "Feature", "geometry": {"type":"Point","coordinates":[11.5355781,48.1523656]}, "properties": {"osm_id": 1813651000, "osm_type": "nodes", "amenity": "pharmacy", "name": "Apotheke im Karl-Albrecht-Hof"}},{"type": "Feature", "geometry": {"type":"Point","coordinates":[11.5668785,48.1237353]}, "properties": {"osm_id": 409497641, "osm_type": "nodes", "amenity": "pharmacy", "name": "Balde-Apotheke"}},{"type": "Feature", "geometry": {"type":"Point","coordinates":[11.5345097,48.1833365]}, "properties": {"osm_id": 2440164854, "osm_type": "nodes", "amenity": "pharmacy", "name": "Sani Plus"}},{"type": "Feature", "geometry": {"type":"Point","coordinates":[11.5447763,48.19856]}, "properties": {"osm_id": 303288626, "osm_type": "nodes", "amenity": "pharmacy", "name": "Viktoria-Apotheke"}},{"type": "Feature", "geometry": {"type":"Point","coordinates":[11.5977,48.1943111]}, "properties": {"osm_id": 521964612, "osm_type": "nodes", "amenity": "pharmacy", "name": "Domos Apotheke"}},{"type": "Feature", "geometry": {"type":"Point","coordinates":[11.5743578,48.1092191]}, "properties": {"osm_id": 387410048, "osm_type": "nodes", "amenity": "pharmacy", "name": "Magnus Apotheke"}},{"type": "Feature", "geometry": {"type":"Point","coordinates":[11.5758386,48.10948]}, "properties": {"osm_id": 302372042, "osm_type": "nodes", "amenity": "pharmacy", "name": "Flora Apotheke"}},{"type": "Feature", "geometry": {"type":"Point","coordinates":[11.6242178,48.1672214]}, "properties": {"osm_id": 331343649, "osm_type": "nodes", "amenity": "pharmacy", "name": "St. Emmeram Apotheke"}},{"type": "Feature", "geometry": {"type":"Point","coordinates":[11.5344443,48.1700893]}, "properties": {"osm_id": 719808995, "osm_type": "nodes", "amenity": "pharmacy", "name": "Einhorn-Apotheke"}},{"type": "Feature", "geometry": {"type":"Point","coordinates":[11.5443593,48.1499837]}, "properties": {"osm_id": 2086422388, "osm_type": "nodes", "amenity": "pharmacy", "name": "Elvira-Apotheke"}},{"type": "Feature", "geometry": {"type":"Point","coordinates":[11.5611229,48.1418962]}, "properties": {"osm_id": 2275831263, "osm_type": "nodes", "amenity": "pharmacy", "name": "Inter-Apotheke"}},{"type": "Feature", "geometry": {"type":"Point","coordinates":[11.5621187,48.1392429]}, "properties": {"osm_id": 701376163, "osm_type": "nodes", "amenity": "pharmacy", "name": "Ahorn-Apotheke"}},{"type": "Feature", "geometry": {"type":"Point","coordinates":[11.5600474,48.1450768]}, "properties": {"osm_id": 315969673, "osm_type": "nodes", "amenity": "pharmacy", "name": "St. Blasius Apotheke"}},{"type": "Feature", "geometry": {"type":"Point","coordinates":[11.5701658,48.1282531]}, "properties": {"osm_id": 305516480, "osm_type": "nodes", "amenity": "pharmacy", "name": "Isar-Apotheke"}},{"type": "Feature", "geometry": {"type":"Point","coordinates":[11.5703982,48.1307043]}, "properties": {"osm_id": 2335094125, "osm_type": "nodes", "amenity": "pharmacy", "name": "Angertor Apotheke"}},{"type": "Feature", "geometry": {"type":"Point","coordinates":[11.5393315,48.1510189]}, "properties": {"osm_id": 315953233, "osm_type": "nodes", "amenity": "pharmacy", "name": "Alpha Apotheke"}},{"type": "Feature", "geometry": {"type":"Point","coordinates":[11.54635,48.1496075]}, "properties": {"osm_id": 1584804036, "osm_type": "nodes", "amenity": "pharmacy", "name": "Wappen-Apotheke"}},{"type": "Feature", "geometry": {"type":"Point","coordinates":[11.5453365,48.1503872]}, "properties": {"osm_id": 315953168, "osm_type": "nodes", "amenity": "pharmacy", "name": "Nordstern Apotheke"}},{"type": "Feature", "geometry": {"type":"Point","coordinates":[11.5793512,48.1153218]}, "properties": {"osm_id": 360660248, "osm_type": "nodes", "amenity": "pharmacy", "name": "Silberhorn-Apotheke"}},{"type": "Feature", "geometry": {"type":"Point","coordinates":[11.579375,48.1147935]}, "properties": {"osm_id": 322659729, "osm_type": "nodes", "amenity": "pharmacy", "name": "Walchensee-Apotheke"}},{"type": "Feature", "geometry": {"type":"Point","coordinates":[11.5327964,48.1520093]}, "properties": {"osm_id": 977471639, "osm_type": "nodes", "amenity": "pharmacy", "name": "Rotkreuzplatz-Apotheke"}},{"type": "Feature", "geometry": {"type":"Point","coordinates":[11.5319476,48.1529446]}, "properties": {"osm_id": 615826973, "osm_type": "nodes", "amenity": "pharmacy", "name": "Kranich-Apotheke"}},{"type": "Feature", "geometry": {"type":"Point","coordinates":[11.5815316,48.1168672]}, "properties": {"osm_id": 1126989582, "osm_type": "nodes", "amenity": "pharmacy", "name": "TELA-Apotheke"}},{"type": "Feature", "geometry": {"type":"Point","coordinates":[11.580668,48.1160757]}, "properties": {"osm_id": 322660277, "osm_type": "nodes", "amenity": "pharmacy", "name": "Heilig-Kreuz-Apotheke"}},{"type": "Feature", "geometry": {"type":"Point","coordinates":[11.5977326,48.1215255]}, "properties": {"osm_id": 8850216361, "osm_type": "nodes", "amenity": "pharmacy", "name": "Bienen-Apotheke Balanstraße"}},{"type": "Feature", "geometry": {"type":"Point","coordinates":[11.575942,48.1123885]}, "properties": {"osm_id": 5454370581, "osm_type": "nodes", "amenity": "pharmacy", "name": "Monachi Apotheke"}},{"type": "Feature", "geometry": {"type":"Point","coordinates":[11.5709276,48.1146482]}, "properties": {"osm_id": 251366199, "osm_type": "nodes", "amenity": "pharmacy", "name": "Schyrenapotheke"}},{"type": "Feature", "geometry": {"type":"Point","coordinates":[11.5699259,48.1149439]}, "properties": {"osm_id": 307535898, "osm_type": "nodes", "amenity": "pharmacy", "name": "Apotheke Hans Mielich"}},{"type": "Feature", "geometry": {"type":"Point","coordinates":[11.5946575,48.1040828]}, "properties": {"osm_id": 305909135, "osm_type": "nodes", "amenity": "pharmacy", "name": "Apotheke am Perlacher Forst"}},{"type": "Feature", "geometry": {"type":"Point","coordinates":[11.4625035,48.1506215]}, "properties": {"osm_id": 442106967, "osm_type": "nodes", "amenity": "pharmacy", "name": "Wensauer Apotheke"}},{"type": "Feature", "geometry": {"type":"Point","coordinates":[11.4609754,48.1442767]}, "properties": {"osm_id": 269698960, "osm_type": "nodes", "amenity": "pharmacy", "name": "Linden-Apotheke"}},{"type": "Feature", "geometry": {"type":"Point","coordinates":[11.455563,48.1496525]}, "properties": {"osm_id": 2387860558, "osm_type": "nodes", "amenity": "pharmacy", "name": "Aurora Apotheke"}},{"type": "Feature", "geometry": {"type":"Point","coordinates":[11.5119126,48.1550836]}, "properties": {"osm_id": 336026350, "osm_type": "nodes", "amenity": "pharmacy", "name": "Nibelungen Apotheke"}},{"type": "Feature", "geometry": {"type":"Point","coordinates":[11.5215561,48.1780296]}, "properties": {"osm_id": 1209458864, "osm_type": "nodes", "amenity": "pharmacy", "name": "Moosacher Apotheke"}},{"type": "Feature", "geometry": {"type":"Point","coordinates":[11.4677564,48.1890846]}, "properties": {"osm_id": 8850842815, "osm_type": "nodes", "amenity": "pharmacy", "name": "Hasen Apotheke Allach"}},{"type": "Feature", "geometry": {"type":"Point","coordinates":[11.6184719,48.1513345]}, "properties": {"osm_id": 324583541, "osm_type": "nodes", "amenity": "pharmacy", "name": "Arabella-Apotheke"}},{"type": "Feature", "geometry": {"type":"Point","coordinates":[11.6203776,48.1513683]}, "properties": {"osm_id": 312395089, "osm_type": "nodes", "amenity": "pharmacy", "name": "Elektra-Apotheke"}},{"type": "Feature", "geometry": {"type":"Point","coordinates":[11.506077,48.1790366]}, "properties": {"osm_id": 3743545021, "osm_type": "nodes", "amenity": "pharmacy", "name": null}},{"type": "Feature", "geometry": {"type":"Point","coordinates":[11.6147544,48.1930026]}, "properties": {"osm_id": 700889363, "osm_type": "nodes", "amenity": "pharmacy", "name": "Freimann-Apotheke"}},{"type": "Feature", "geometry": {"type":"Point","coordinates":[11.467392,48.2259533]}, "properties": {"osm_id": 653956869, "osm_type": "nodes", "amenity": "pharmacy", "name": "vitalCENTER Karlsfeld"}},{"type": "Feature", "geometry": {"type":"Point","coordinates":[11.4708795,48.223822]}, "properties": {"osm_id": 370053079, "osm_type": "nodes", "amenity": "pharmacy", "name": "Eulen Apotheke"}},{"type": "Feature", "geometry": {"type":"Point","coordinates":[11.5304443,48.1566063]}, "properties": {"osm_id": 828917183, "osm_type": "nodes", "amenity": "pharmacy", "name": "Lachner Apotheke"}},{"type": "Feature", "geometry": {"type":"Point","coordinates":[11.5311283,48.1544618]}, "properties": {"osm_id": 7031917569, "osm_type": "nodes", "amenity": "pharmacy", "name": "Renner'sche Apotheke"}},{"type": "Feature", "geometry": {"type":"Point","coordinates":[11.5028522,48.1460464]}, "properties": {"osm_id": 1719240718, "osm_type": "nodes", "amenity": "pharmacy", "name": "Ambigon Apotheke"}},{"type": "Feature", "geometry": {"type":"Point","coordinates":[11.6187319,48.1394309]}, "properties": {"osm_id": 6416883921, "osm_type": "nodes", "amenity": "pharmacy", "name": "Barbarossa-Apotheke"}},{"type": "Feature", "geometry": {"type":"Point","coordinates":[11.5239809,48.1609114]}, "properties": {"osm_id": 712613253, "osm_type": "nodes", "amenity": "pharmacy", "name": "Gerner-Apotheke"}},{"type": "Feature", "geometry": {"type":"Point","coordinates":[11.6177073,48.1485021]}, "properties": {"osm_id": 528998447, "osm_type": "nodes", "amenity": "pharmacy", "name": "Mary's Apotheke"}},{"type": "Feature", "geometry": {"type":"Point","coordinates":[11.4626977,48.1892088]}, "properties": {"osm_id": 755933802, "osm_type": "nodes", "amenity": "pharmacy", "name": "Allacher Apotheke"}},{"type": "Feature", "geometry": {"type":"Point","coordinates":[11.5291203,48.1822763]}, "properties": {"osm_id": 386621116, "osm_type": "nodes", "amenity": "pharmacy", "name": "SaniPlus"}},{"type": "Feature", "geometry": {"type":"Point","coordinates":[11.5283383,48.1964923]}, "properties": {"osm_id": 303999840, "osm_type": "nodes", "amenity": "pharmacy", "name": "Fasanen-Apotheke"}},{"type": "Feature", "geometry": {"type":"Point","coordinates":[11.4969923,48.1432334]}, "properties": {"osm_id": 567074004, "osm_type": "nodes", "amenity": "pharmacy", "name": "Fontane Apotheke"}},{"type": "Feature", "geometry": {"type":"Point","coordinates":[11.4864369,48.1807679]}, "properties": {"osm_id": 915952292, "osm_type": "nodes", "amenity": "pharmacy", "name": "Apotheke Hartmannshofen"}},{"type": "Feature", "geometry": {"type":"Point","coordinates":[11.4445552,48.1609363]}, "properties": {"osm_id": 1998649730, "osm_type": "nodes", "amenity": "pharmacy", "name": "Bienen Apotheke"}},{"type": "Feature", "geometry": {"type":"Point","coordinates":[11.4972965,48.1815072]}, "properties": {"osm_id": 1029909586, "osm_type": "nodes", "amenity": "pharmacy", "name": "St. Thomas Apotheke"}},{"type": "Feature", "geometry": {"type":"Point","coordinates":[11.4758082,48.151572]}, "properties": {"osm_id": 241779304, "osm_type": "nodes", "amenity": "pharmacy", "name": "Sibelius-Apotheke"}},{"type": "Feature", "geometry": {"type":"Point","coordinates":[11.4600208,48.1492574]}, "properties": {"osm_id": 1828435898, "osm_type": "nodes", "amenity": "pharmacy", "name": "Bienenapotheke"}},{"type": "Feature", "geometry": {"type":"Point","coordinates":[11.4602226,48.1487302]}, "properties": {"osm_id": 209171906, "osm_type": "nodes", "amenity": "pharmacy", "name": "Bahnhofapotheke"}},{"type": "Feature", "geometry": {"type":"Point","coordinates":[11.4135747,48.1620154]}, "properties": {"osm_id": 854428230, "osm_type": "nodes", "amenity": "pharmacy", "name": "St. Quirin Apotheke"}},{"type": "Feature", "geometry": {"type":"Point","coordinates":[11.4767022,48.1644913]}, "properties": {"osm_id": 2612228933, "osm_type": "nodes", "amenity": "pharmacy", "name": "Bavaria Apotheke"}},{"type": "Feature", "geometry": {"type":"Point","coordinates":[11.5070989,48.1804725]}, "properties": {"osm_id": 1062378385, "osm_type": "nodes", "amenity": "pharmacy", "name": "Mary's Apotheke"}},{"type": "Feature", "geometry": {"type":"Point","coordinates":[11.579659,48.1251681]}, "properties": {"osm_id": 6003593056, "osm_type": "nodes", "amenity": "pharmacy", "name": "Mariahilf Apotheke"}},{"type": "Feature", "geometry": {"type":"Point","coordinates":[11.5828535,48.1265697]}, "properties": {"osm_id": 2335068081, "osm_type": "nodes", "amenity": "pharmacy", "name": "Schweiger Apotheke"}},{"type": "Feature", "geometry": {"type":"Point","coordinates":[11.6001175,48.087486]}, "properties": {"osm_id": 318861629, "osm_type": "nodes", "amenity": "pharmacy", "name": "ABC-Apotheke"}},{"type": "Feature", "geometry": {"type":"Point","coordinates":[11.4641301,48.1477131]}, "properties": {"osm_id": 6499800962, "osm_type": "nodes", "amenity": "pharmacy", "name": "SaniPlus Nachtzugang"}},{"type": "Feature", "geometry": {"type":"Point","coordinates":[11.5913744,48.1267604]}, "properties": {"osm_id": 259759574, "osm_type": "nodes", "amenity": "pharmacy", "name": "Apotheke im Franziskanerhof"}},{"type": "Feature", "geometry": {"type":"Point","coordinates":[11.5859094,48.1130763]}, "properties": {"osm_id": 445498572, "osm_type": "nodes", "amenity": "pharmacy", "name": "Walter-Apotheke"}},{"type": "Feature", "geometry": {"type":"Point","coordinates":[11.4609354,48.1880475]}, "properties": {"osm_id": 2325540054, "osm_type": "nodes", "amenity": "pharmacy", "name": "Eversbusch Apotheke"}},{"type": "Feature", "geometry": {"type":"Point","coordinates":[11.4202536,48.1513334]}, "properties": {"osm_id": 243727149, "osm_type": "nodes", "amenity": "pharmacy", "name": "Ubo Apotheke"}},{"type": "Feature", "geometry": {"type":"Point","coordinates":[11.4759366,48.1816351]}, "properties": {"osm_id": 197630081, "osm_type": "nodes", "amenity": "pharmacy", "name": "Angerloh-Apotheke"}},{"type": "Feature", "geometry": {"type":"Point","coordinates":[11.4679767,48.1649131]}, "properties": {"osm_id": 414979708, "osm_type": "nodes", "amenity": "pharmacy", "name": "Menzinger Apotheke"}},{"type": "Feature", "geometry": {"type":"Point","coordinates":[11.4644072,48.1646372]}, "properties": {"osm_id": 429432261, "osm_type": "nodes", "amenity": "pharmacy", "name": "Blutenburg Apotheke"}},{"type": "Feature", "geometry": {"type":"Point","coordinates":[11.5525823,48.1264191]}, "properties": {"osm_id": 11848266591, "osm_type": "nodes", "amenity": "pharmacy", "name": "Nepomuk Apotheke"}},{"type": "Feature", "geometry": {"type":"Point","coordinates":[11.4613087,48.1483775]}, "properties": {"osm_id": 275563155, "osm_type": "nodes", "amenity": "pharmacy", "name": "Gesundbrunnen-Apotheke"}},{"type": "Feature", "geometry": {"type":"Point","coordinates":[11.6359145,48.1733165]}, "properties": {"osm_id": 313621953, "osm_type": "nodes", "amenity": "pharmacy", "name": "Pharao Apotheke"}},{"type": "Feature", "geometry": {"type":"Point","coordinates":[11.5889163,48.1406104]}, "properties": {"osm_id": 291364489, "osm_type": "nodes", "amenity": "pharmacy", "name": "Bienen Apotheke"}},{"type": "Feature", "geometry": {"type":"Point","coordinates":[11.5884171,48.1395568]}, "properties": {"osm_id": 291364414, "osm_type": "nodes", "amenity": "pharmacy", "name": "Apotheke am Thierschplatz"}},{"type": "Feature", "geometry": {"type":"Point","coordinates":[11.579051,48.1838501]}, "properties": {"osm_id": 893397468, "osm_type": "nodes", "amenity": "pharmacy", "name": "Domagk-Apotheke"}},{"type": "Feature", "geometry": {"type":"Point","coordinates":[11.6019866,48.1783895]}, "properties": {"osm_id": 312384639, "osm_type": "nodes", "amenity": "pharmacy", "name": "Apotheke Schwabing Nord"}},{"type": "Feature", "geometry": {"type":"Point","coordinates":[11.5834122,48.1339916]}, "properties": {"osm_id": 305266493, "osm_type": "nodes", "amenity": "pharmacy", "name": "Isartor Apotheke"}},{"type": "Feature", "geometry": {"type":"Point","coordinates":[11.5764608,48.1336423]}, "properties": {"osm_id": 254057573, "osm_type": "nodes", "amenity": "pharmacy", "name": "Rumford Apotheke"}},{"type": "Feature", "geometry": {"type":"Point","coordinates":[11.5824329,48.1610771]}, "properties": {"osm_id": 387808143, "osm_type": "nodes", "amenity": "pharmacy", "name": "Kaiser Apotheke"}},{"type": "Feature", "geometry": {"type":"Point","coordinates":[11.5787887,48.1370701]}, "properties": {"osm_id": 337811101, "osm_type": "nodes", "amenity": "pharmacy", "name": "Orlando-Apotheke"}},{"type": "Feature", "geometry": {"type":"Point","coordinates":[11.5645483,48.1665021]}, "properties": {"osm_id": 427540542, "osm_type": "nodes", "amenity": "pharmacy", "name": "St. Sebastian-Apotheke"}},{"type": "Feature", "geometry": {"type":"Point","coordinates":[11.5164465,48.1180918]}, "properties": {"osm_id": 675912430, "osm_type": "nodes", "amenity": "pharmacy", "name": "Garmischer Apotheke"}},{"type": "Feature", "geometry": {"type":"Point","coordinates":[11.5871604,48.1624005]}, "properties": {"osm_id": 838507451, "osm_type": "nodes", "amenity": "pharmacy", "name": "St. Ursula Apotheke"}},{"type": "Feature", "geometry": {"type":"Point","coordinates":[11.5857107,48.1592797]}, "properties": {"osm_id": 315972788, "osm_type": "nodes", "amenity": "pharmacy", "name": "von Mendelsche Apotheke"}},{"type": "Feature", "geometry": {"type":"Point","coordinates":[11.5166925,48.0805632]}, "properties": {"osm_id": 1776380584, "osm_type": "nodes", "amenity": "pharmacy", "name": "Johannes Apotheke"}},{"type": "Feature", "geometry": {"type":"Point","coordinates":[11.5755858,48.1345943]}, "properties": {"osm_id": 296468211, "osm_type": "nodes", "amenity": "pharmacy", "name": "Löwenapotheke"}},{"type": "Feature", "geometry": {"type":"Point","coordinates":[11.5200144,48.0888675]}, "properties": {"osm_id": 1741762538, "osm_type": "nodes", "amenity": "pharmacy", "name": "Marienstern Apotheke"}},{"type": "Feature", "geometry": {"type":"Point","coordinates":[11.5199689,48.0774384]}, "properties": {"osm_id": 1626826206, "osm_type": "nodes", "amenity": "pharmacy", "name": "Marienstern Apotheke"}},{"type": "Feature", "geometry": {"type":"Point","coordinates":[11.5228406,48.1371996]}, "properties": {"osm_id": 288791873, "osm_type": "nodes", "amenity": "pharmacy", "name": "Apotheke West 4"}},{"type": "Feature", "geometry": {"type":"Point","coordinates":[11.4793102,48.0881104]}, "properties": {"osm_id": 1700604632, "osm_type": "nodes", "amenity": "pharmacy", "name": "Tell-Apotheke"}},{"type": "Feature", "geometry": {"type":"Point","coordinates":[11.5865087,48.1415739]}, "properties": {"osm_id": 291103858, "osm_type": "nodes", "amenity": "pharmacy", "name": "Liebig-Apotheke"}},{"type": "Feature", "geometry": {"type":"Point","coordinates":[11.5612128,48.1380825]}, "properties": {"osm_id": 173671753, "osm_type": "nodes", "amenity": "pharmacy", "name": "City-Apotheke"}},{"type": "Feature", "geometry": {"type":"Point","coordinates":[11.5574673,48.1364668]}, "properties": {"osm_id": 696835710, "osm_type": "nodes", "amenity": "pharmacy", "name": "Rihani Apotheke"}},{"type": "Feature", "geometry": {"type":"Point","coordinates":[11.558385,48.1367332]}, "properties": {"osm_id": 696835713, "osm_type": "nodes", "amenity": "pharmacy", "name": "Goethe Apotheke"}},{"type": "Feature", "geometry": {"type":"Point","coordinates":[11.5732837,48.1819549]}, "properties": {"osm_id": 238410530, "osm_type": "nodes", "amenity": "pharmacy", "name": "Walpurgis-Apotheke"}},{"type": "Feature", "geometry": {"type":"Point","coordinates":[11.5400557,48.1340213]}, "properties": {"osm_id": 335168209, "osm_type": "nodes", "amenity": "pharmacy", "name": "Park-Apotheke"}},{"type": "Feature", "geometry": {"type":"Point","coordinates":[11.558388,48.1384174]}, "properties": {"osm_id": 329118042, "osm_type": "nodes", "amenity": "pharmacy", "name": "Stadt-Apotheke"}},{"type": "Feature", "geometry": {"type":"Point","coordinates":[11.644419,48.1651118]}, "properties": {"osm_id": 249311656, "osm_type": "nodes", "amenity": "pharmacy", "name": "Freischütz-Apotheke"}},{"type": "Feature", "geometry": {"type":"Point","coordinates":[11.5397529,48.1174507]}, "properties": {"osm_id": 787687569, "osm_type": "nodes", "amenity": "pharmacy", "name": "Harras Apotheke"}},{"type": "Feature", "geometry": {"type":"Point","coordinates":[11.5403591,48.11725]}, "properties": {"osm_id": 792969283, "osm_type": "nodes", "amenity": "pharmacy", "name": "St. Vitus Apotheke"}},{"type": "Feature", "geometry": {"type":"Point","coordinates":[11.5402922,48.1185061]}, "properties": {"osm_id": 430262657, "osm_type": "nodes", "amenity": "pharmacy", "name": "Behring-Apotheke"}},{"type": "Feature", "geometry": {"type":"Point","coordinates":[11.5484055,48.1123029]}, "properties": {"osm_id": 2335408878, "osm_type": "nodes", "amenity": "pharmacy", "name": "St. Korbinian"}},{"type": "Feature", "geometry": {"type":"Point","coordinates":[11.5977142,48.1358367]}, "properties": {"osm_id": 262658333, "osm_type": "nodes", "amenity": "pharmacy", "name": "Klosterapotheke"}},{"type": "Feature", "geometry": {"type":"Point","coordinates":[11.5935999,48.1693881]}, "properties": {"osm_id": 383909160, "osm_type": "nodes", "amenity": "pharmacy", "name": "Ungerer-Bad-Apotheke"}},{"type": "Feature", "geometry": {"type":"Point","coordinates":[11.5908627,48.1667721]}, "properties": {"osm_id": 312384655, "osm_type": "nodes", "amenity": "pharmacy", "name": "Virchow-Apotheke"}},{"type": "Feature", "geometry": {"type":"Point","coordinates":[11.5780267,48.1671569]}, "properties": {"osm_id": 282045222, "osm_type": "nodes", "amenity": "pharmacy", "name": "Apotheke am Bonner Platz"}},{"type": "Feature", "geometry": {"type":"Point","coordinates":[11.534393,48.1337594]}, "properties": {"osm_id": 471049663, "osm_type": "nodes", "amenity": "pharmacy", "name": "Heimeran-Apotheke"}},{"type": "Feature", "geometry": {"type":"Point","coordinates":[11.5485689,48.1174235]}, "properties": {"osm_id": 8828212239, "osm_type": "nodes", "amenity": "pharmacy", "name": "Impler Apotheke"}},{"type": "Feature", "geometry": {"type":"Point","coordinates":[11.5347639,48.1535381]}, "properties": {"osm_id": 330431041, "osm_type": "nodes", "amenity": "pharmacy", "name": "Winthir Apotheke"}},{"type": "Feature", "geometry": {"type":"Point","coordinates":[11.5842692,48.1761723]}, "properties": {"osm_id": 1148216618, "osm_type": "nodes", "amenity": "pharmacy", "name": "Petuel-Apotheke"}},{"type": "Feature", "geometry": {"type":"Point","coordinates":[11.5853722,48.17369]}, "properties": {"osm_id": 345849084, "osm_type": "nodes", "amenity": "pharmacy", "name": "Blüten Apotheke"}},{"type": "Feature", "geometry": {"type":"Point","coordinates":[11.5345146,48.1212095]}, "properties": {"osm_id": 4482577805, "osm_type": "nodes", "amenity": "pharmacy", "name": "Monaco Apotheke"}},{"type": "Feature", "geometry": {"type":"Point","coordinates":[11.5234846,48.0988799]}, "properties": {"osm_id": 714308720, "osm_type": "nodes", "amenity": "pharmacy", "name": "Apotheke am Ratzingerplatz"}},{"type": "Feature", "geometry": {"type":"Point","coordinates":[11.5562441,48.1283063]}, "properties": {"osm_id": 339110010, "osm_type": "nodes", "amenity": "pharmacy", "name": "Oleander Apotheke"}},{"type": "Feature", "geometry": {"type":"Point","coordinates":[11.5983983,48.1319428]}, "properties": {"osm_id": 266698100, "osm_type": "nodes", "amenity": "pharmacy", "name": "Preysing-Apotheke"}},{"type": "Feature", "geometry": {"type":"Point","coordinates":[11.544638,48.1052126]}, "properties": {"osm_id": 309452507, "osm_type": "nodes", "amenity": "pharmacy", "name": "Isartal-Apotheke"}},{"type": "Feature", "geometry": {"type":"Point","coordinates":[11.5668069,48.1548502]}, "properties": {"osm_id": 173668710, "osm_type": "nodes", "amenity": "pharmacy", "name": "Adelheid-Apotheke"}},{"type": "Feature", "geometry": {"type":"Point","coordinates":[11.5658741,48.1555325]}, "properties": {"osm_id": 1372082007, "osm_type": "nodes", "amenity": "pharmacy", "name": "Hiltensperger-Apotheke"}},{"type": "Feature", "geometry": {"type":"Point","coordinates":[11.5440443,48.1193951]}, "properties": {"osm_id": 1973959283, "osm_type": "nodes", "amenity": "pharmacy", "name": "Oberländer Apotheke"}},{"type": "Feature", "geometry": {"type":"Point","coordinates":[11.5413115,48.1246043]}, "properties": {"osm_id": 430262656, "osm_type": "nodes", "amenity": "pharmacy", "name": "Sendlinger Apotheke"}},{"type": "Feature", "geometry": {"type":"Point","coordinates":[11.5760451,48.160162]}, "properties": {"osm_id": 417672156, "osm_type": "nodes", "amenity": "pharmacy", "name": "farma-plus"}},{"type": "Feature", "geometry": {"type":"Point","coordinates":[11.5751303,48.1577772]}, "properties": {"osm_id": 308055996, "osm_type": "nodes", "amenity": "pharmacy", "name": "Kurfürsten Apotheke"}},{"type": "Feature", "geometry": {"type":"Point","coordinates":[11.580881,48.1599992]}, "properties": {"osm_id": 371328236, "osm_type": "nodes", "amenity": "pharmacy", "name": "Hohenzollern Apotheke"}},{"type": "Feature", "geometry": {"type":"Point","coordinates":[11.5765664,48.1862764]}, "properties": {"osm_id": 1191155302, "osm_type": "nodes", "amenity": "pharmacy", "name": "Minerva Apotheke"}},{"type": "Feature", "geometry": {"type":"Point","coordinates":[11.5705761,48.1404052]}, "properties": {"osm_id": 1447721774, "osm_type": "nodes", "amenity": "pharmacy", "name": "Otto-Apotheke in der Maxburg"}},{"type": "Feature", "geometry": {"type":"Point","coordinates":[11.5704559,48.1382413]}, "properties": {"osm_id": 329118008, "osm_type": "nodes", "amenity": "pharmacy", "name": "Internationale Ludwigs-Apotheke"}},{"type": "Feature", "geometry": {"type":"Point","coordinates":[11.5763084,48.1313306]}, "properties": {"osm_id": 254057466, "osm_type": "nodes", "amenity": "pharmacy", "name": "Apotheke am Gärtnerplatz"}},{"type": "Feature", "geometry": {"type":"Point","coordinates":[11.5607144,48.1213092]}, "properties": {"osm_id": 6428807574, "osm_type": "nodes", "amenity": "pharmacy", "name": "Iris Apotheke"}},{"type": "Feature", "geometry": {"type":"Point","coordinates":[11.5834179,48.1193463]}, "properties": {"osm_id": 305258406, "osm_type": "nodes", "amenity": "pharmacy", "name": "Salvator Apotheke"}},{"type": "Feature", "geometry": {"type":"Point","coordinates":[11.5752545,48.1538748]}, "properties": {"osm_id": 363409839, "osm_type": "nodes", "amenity": "pharmacy", "name": "Neureuther-Apotheke"}},{"type": "Feature", "geometry": {"type":"Point","coordinates":[11.5777992,48.1415242]}, "properties": {"osm_id": 617126144, "osm_type": "nodes", "amenity": "pharmacy", "name": "Hofapotheke in der Residenz"}},{"type": "Feature", "geometry": {"type":"Point","coordinates":[11.5760769,48.1396008]}, "properties": {"osm_id": 317457677, "osm_type": "nodes", "amenity": "pharmacy", "name": "Engel Apotheke"}},{"type": "Feature", "geometry": {"type":"Point","coordinates":[11.5750991,48.1487065]}, "properties": {"osm_id": 390269441, "osm_type": "nodes", "amenity": "pharmacy", "name": "Apotheke Maxvorstadt"}},{"type": "Feature", "geometry": {"type":"Point","coordinates":[11.5792107,48.1362444]}, "properties": {"osm_id": 332790679, "osm_type": "nodes", "amenity": "pharmacy", "name": "St. Anna Apotheke 1828"}},{"type": "Feature", "geometry": {"type":"Point","coordinates":[11.5625989,48.1577199]}, "properties": {"osm_id": 366121033, "osm_type": "nodes", "amenity": "pharmacy", "name": "Barbara Apotheke"}},{"type": "Feature", "geometry": {"type":"Point","coordinates":[11.5631605,48.1836479]}, "properties": {"osm_id": 2263191338, "osm_type": "nodes", "amenity": "pharmacy", "name": "Riesenfeld-Apotheke"}},{"type": "Feature", "geometry": {"type":"Point","coordinates":[11.5828647,48.1335039]}, "properties": {"osm_id": 296462288, "osm_type": "nodes", "amenity": "pharmacy", "name": "Zweibrücken-Apotheke"}},{"type": "Feature", "geometry": {"type":"Point","coordinates":[11.5748256,48.1432851]}, "properties": {"osm_id": 447786242, "osm_type": "nodes", "amenity": "pharmacy", "name": "Brienner Apotheke"}},{"type": "Feature", "geometry": {"type":"Point","coordinates":[11.5667474,48.1326157]}, "properties": {"osm_id": 409497636, "osm_type": "nodes", "amenity": "pharmacy", "name": "Blumenapotheke"}},{"type": "Feature", "geometry": {"type":"Point","coordinates":[11.5712742,48.136919]}, "properties": {"osm_id": 4935295893, "osm_type": "nodes", "amenity": "pharmacy", "name": "Klösterl-Apotheke"}},{"type": "Feature", "geometry": {"type":"Point","coordinates":[11.5841915,48.1539949]}, "properties": {"osm_id": 1378668996, "osm_type": "nodes", "amenity": "pharmacy", "name": "Apotheke am Englischen Garten"}},{"type": "Feature", "geometry": {"type":"Point","coordinates":[11.5742215,48.1522707]}, "properties": {"osm_id": 390082527, "osm_type": "nodes", "amenity": "pharmacy", "name": "Barer Apotheke"}},{"type": "Feature", "geometry": {"type":"Point","coordinates":[11.5759737,48.1374138]}, "properties": {"osm_id": 254057401, "osm_type": "nodes", "amenity": "pharmacy", "name": "Rathaus-Apotheke"}},{"type": "Feature", "geometry": {"type":"Point","coordinates":[11.5629724,48.1396387]}, "properties": {"osm_id": 417104971, "osm_type": "nodes", "amenity": "pharmacy", "name": "Schützen-Apotheke"}},{"type": "Feature", "geometry": {"type":"Point","coordinates":[11.565718,48.1328331]}, "properties": {"osm_id": 4853553832, "osm_type": "nodes", "amenity": "pharmacy", "name": "Aponia.de"}},{"type": "Feature", "geometry": {"type":"Point","coordinates":[11.5640104,48.1512949]}, "properties": {"osm_id": 1567305611, "osm_type": "nodes", "amenity": "pharmacy", "name": "Robert-Koch-Apotheke"}},{"type": "Feature", "geometry": {"type":"Point","coordinates":[11.5662199,48.1346608]}, "properties": {"osm_id": 305449486, "osm_type": "nodes", "amenity": "pharmacy", "name": "Regenbogenapotheke"}},{"type": "Feature", "geometry": {"type":"Point","coordinates":[11.5654089,48.13387]}, "properties": {"osm_id": 1889010103, "osm_type": "nodes", "amenity": "pharmacy", "name": "Cleemann-Apotheke"}},{"type": "Feature", "geometry": {"type":"Point","coordinates":[11.5720061,48.2048216]}, "properties": {"osm_id": 258170356, "osm_type": "nodes", "amenity": "pharmacy", "name": "Apotheke am Hart"}},{"type": "Feature", "geometry": {"type":"Point","coordinates":[11.563982,48.2069952]}, "properties": {"osm_id": 1324405584, "osm_type": "nodes", "amenity": "pharmacy", "name": "Harthof Apotheke"}},{"type": "Feature", "geometry": {"type":"Point","coordinates":[11.5631402,48.1491176]}, "properties": {"osm_id": 1567316557, "osm_type": "nodes", "amenity": "pharmacy", "name": "Augusten Apotheke"}},{"type": "Feature", "geometry": {"type":"Point","coordinates":[11.5667107,48.1398637]}, "properties": {"osm_id": 656295781, "osm_type": "nodes", "amenity": "pharmacy", "name": "Stachus-Apotheke"}},{"type": "Feature", "geometry": {"type":"Point","coordinates":[11.5667511,48.1844204]}, "properties": {"osm_id": 269050127, "osm_type": "nodes", "amenity": "pharmacy", "name": "fit & gesund Apotheke"}},{"type": "Feature", "geometry": {"type":"Point","coordinates":[11.558105,48.1291359]}, "properties": {"osm_id": 307528346, "osm_type": "nodes", "amenity": "pharmacy", "name": "Apotheke am Goetheplatz"}},{"type": "Feature", "geometry": {"type":"Point","coordinates":[11.5585631,48.1289618]}, "properties": {"osm_id": 1813638194, "osm_type": "nodes", "amenity": "pharmacy", "name": "Goetheplatz-Apotheke"}},{"type": "Feature", "geometry": {"type":"Point","coordinates":[11.5568061,48.1285803]}, "properties": {"osm_id": 985008092, "osm_type": "nodes", "amenity": "pharmacy", "name": "Wittelsbacher Apotheke"}},{"type": "Feature", "geometry": {"type":"Point","coordinates":[11.5688778,48.093811]}, "properties": {"osm_id": 10062459608, "osm_type": "nodes", "amenity": "pharmacy", "name": "Diana Apotheke"}},{"type": "Feature", "geometry": {"type":"Point","coordinates":[11.6303317,48.1550227]}, "properties": {"osm_id": 314456249, "osm_type": "nodes", "amenity": "pharmacy", "name": "Cosima-Apotheke"}},{"type": "Feature", "geometry": {"type":"Point","coordinates":[11.5480336,48.120978]}, "properties": {"osm_id": 316917342, "osm_type": "nodes", "amenity": "pharmacy", "name": "Bienen-Apotheke"}},{"type": "Feature", "geometry": {"type":"Point","coordinates":[11.5605343,48.1391635]}, "properties": {"osm_id": 6524200082, "osm_type": "nodes", "amenity": "pharmacy", "name": "Internationale Hauptbahnhof Apotheke"}},{"type": "Feature", "geometry": {"type":"Point","coordinates":[11.4894386,48.1181153]}, "properties": {"osm_id": 1192973307, "osm_type": "nodes", "amenity": "pharmacy", "name": "Guardini-Apotheke"}},{"type": "Feature", "geometry": {"type":"Point","coordinates":[11.502758,48.116733]}, "properties": {"osm_id": 818944550, "osm_type": "nodes", "amenity": "pharmacy", "name": "Sankt Kosmas Apotheke"}},{"type": "Feature", "geometry": {"type":"Point","coordinates":[11.4103257,48.1397393]}, "properties": {"osm_id": 2463695059, "osm_type": "nodes", "amenity": "pharmacy", "name": "Apotheke Freiham"}},{"type": "Feature", "geometry": {"type":"Point","coordinates":[11.5739659,48.1688874]}, "properties": {"osm_id": 319439033, "osm_type": "nodes", "amenity": "pharmacy", "name": "Prinz-Eugen-Apotheke"}},{"type": "Feature", "geometry": {"type":"Point","coordinates":[11.5638789,48.163279]}, "properties": {"osm_id": 427540547, "osm_type": "nodes", "amenity": "pharmacy", "name": "Herzog Apotheke"}},{"type": "Feature", "geometry": {"type":"Point","coordinates":[11.6211072,48.127983]}, "properties": {"osm_id": 433904711, "osm_type": "nodes", "amenity": "pharmacy", "name": "Schwanen Apotheke"}},{"type": "Feature", "geometry": {"type":"Point","coordinates":[11.5042477,48.0822095]}, "properties": {"osm_id": 1741402137, "osm_type": "nodes", "amenity": "pharmacy", "name": "Süd-Apotheke"}},{"type": "Feature", "geometry": {"type":"Point","coordinates":[11.6160212,48.1425629]}, "properties": {"osm_id": 249310618, "osm_type": "nodes", "amenity": "pharmacy", "name": "Tassilo Apotheke"}},{"type": "Feature", "geometry": {"type":"Point","coordinates":[11.5108926,48.1132157]}, "properties": {"osm_id": 677214294, "osm_type": "nodes", "amenity": "pharmacy", "name": "St.-Heinrich-Apotheke"}},{"type": "Feature", "geometry": {"type":"Point","coordinates":[11.4135153,48.1502554]}, "properties": {"osm_id": 1919818015, "osm_type": "nodes", "amenity": "pharmacy", "name": "Riesenburg Apotheke"}},{"type": "Feature", "geometry": {"type":"Point","coordinates":[11.4135097,48.1502807]}, "properties": {"osm_id": 1919818019, "osm_type": "nodes", "amenity": "pharmacy", "name": "Riesenburg Apotheke"}},{"type": "Feature", "geometry": {"type":"Point","coordinates":[11.5308501,48.2150182]}, "properties": {"osm_id": 305371190, "osm_type": "nodes", "amenity": "pharmacy", "name": "Mocho Apotheke"}},{"type": "Feature", "geometry": {"type":"Point","coordinates":[11.5349133,48.1983459]}, "properties": {"osm_id": 304009205, "osm_type": "nodes", "amenity": "pharmacy", "name": "Lassalle Apotheke"}},{"type": "Feature", "geometry": {"type":"Point","coordinates":[11.6177462,48.1108774]}, "properties": {"osm_id": 444004199, "osm_type": "nodes", "amenity": "pharmacy", "name": "Urban-Apotheke"}},{"type": "Feature", "geometry": {"type":"Point","coordinates":[11.6419605,48.0940511]}, "properties": {"osm_id": 305192261, "osm_type": "nodes", "amenity": "pharmacy", "name": "Nikolaus-Apotheke"}},{"type": "Feature", "geometry": {"type":"Point","coordinates":[11.644246,48.1011448]}, "properties": {"osm_id": 1371985308, "osm_type": "nodes", "amenity": "pharmacy", "name": "SaniPep Apotheke"}},{"type": "Feature", "geometry": {"type":"Point","coordinates":[11.6450448,48.1072188]}, "properties": {"osm_id": 1996999229, "osm_type": "nodes", "amenity": "pharmacy", "name": "Sani PEP"}},{"type": "Feature", "geometry": {"type":"Point","coordinates":[11.6352203,48.1255756]}, "properties": {"osm_id": 290528236, "osm_type": "nodes", "amenity": "pharmacy", "name": "Josephsburg-Apotheke"}},{"type": "Feature", "geometry": {"type":"Point","coordinates":[11.638702,48.1252688]}, "properties": {"osm_id": 318599105, "osm_type": "nodes", "amenity": "pharmacy", "name": "Ost-Apotheke"}},{"type": "Feature", "geometry": {"type":"Point","coordinates":[11.5581135,48.2199386]}, "properties": {"osm_id": 313465729, "osm_type": "nodes", "amenity": "pharmacy", "name": "Kant Apotheke"}},{"type": "Feature", "geometry": {"type":"Point","coordinates":[11.5560008,48.2124296]}, "properties": {"osm_id": 258189061, "osm_type": "nodes", "amenity": "pharmacy", "name": "Lilienapotheke"}},{"type": "Feature", "geometry": {"type":"Point","coordinates":[11.5573349,48.2142647]}, "properties": {"osm_id": 2989750460, "osm_type": "nodes", "amenity": "pharmacy", "name": "Hasen-Apotheke"}},{"type": "Feature", "geometry": {"type":"Point","coordinates":[11.6533197,48.0992594]}, "properties": {"osm_id": 1777309427, "osm_type": "nodes", "amenity": "pharmacy", "name": "Sudermann Apotheke"}},{"type": "Feature", "geometry": {"type":"Point","coordinates":[11.6644415,48.124676]}, "properties": {"osm_id": 2262959543, "osm_type": "nodes", "amenity": "pharmacy", "name": "Hahn Apotheke"}},{"type": "Feature", "geometry": {"type":"Point","coordinates":[11.5525948,48.2077322]}, "properties": {"osm_id": 258189089, "osm_type": "nodes", "amenity": "pharmacy", "name": "Rainfarn Apotheke - Sanitätshaus"}},{"type": "Feature", "geometry": {"type":"Point","coordinates":[11.5530994,48.2039901]}, "properties": {"osm_id": 258189091, "osm_type": "nodes", "amenity": "pharmacy", "name": "Gundermann-Apotheke"}},{"type": "Feature", "geometry": {"type":"Point","coordinates":[11.6696636,48.1219589]}, "properties": {"osm_id": 279840984, "osm_type": "nodes", "amenity": "pharmacy", "name": "Solalinden-Apotheke"}},{"type": "Feature", "geometry": {"type":"Point","coordinates":[11.610805,48.1192524]}, "properties": {"osm_id": 318712637, "osm_type": "nodes", "amenity": "pharmacy", "name": "Melusinen-Apotheke"}},{"type": "Feature", "geometry": {"type":"Point","coordinates":[11.6125272,48.116662]}, "properties": {"osm_id": 319378542, "osm_type": "nodes", "amenity": "pharmacy", "name": "Alpen-Apotheke"}},{"type": "Feature", "geometry": {"type":"Point","coordinates":[11.6565689,48.1074382]}, "properties": {"osm_id": 271236722, "osm_type": "nodes", "amenity": "pharmacy", "name": "Apotheke am Marx-Zentrum"}},{"type": "Feature", "geometry": {"type":"Point","coordinates":[11.6552939,48.124826]}, "properties": {"osm_id": 279840992, "osm_type": "nodes", "amenity": "pharmacy", "name": "Libellen-Apotheke"}},{"type": "Feature", "geometry": {"type":"Point","coordinates":[11.6312523,48.0999488]}, "properties": {"osm_id": 286032262, "osm_type": "nodes", "amenity": "pharmacy", "name": "Perlen Apotheke am Pfanzeltplatz"}},{"type": "Feature", "geometry": {"type":"Point","coordinates":[11.6307853,48.1290882]}, "properties": {"osm_id": 297037982, "osm_type": "nodes", "amenity": "pharmacy", "name": "Stern-Apotheke"}},{"type": "Feature", "geometry": {"type":"Point","coordinates":[11.4846311,48.087357]}, "properties": {"osm_id": 1741692050, "osm_type": "nodes", "amenity": "pharmacy", "name": "Engadin-Apotheke"}},{"type": "Feature", "geometry": {"type":"Point","coordinates":[11.671658,48.1216203]}, "properties": {"osm_id": 8387676432, "osm_type": "nodes", "amenity": "pharmacy", "name": "Friedens-Apotheke"}},{"type": "Feature", "geometry": {"type":"Point","coordinates":[11.5955726,48.1283677]}, "properties": {"osm_id": 1302498068, "osm_type": "nodes", "amenity": "pharmacy", "name": "Fleming Apotheke"}},{"type": "Feature", "geometry": {"type":"Point","coordinates":[11.5978062,48.1343945]}, "properties": {"osm_id": 332797655, "osm_type": "nodes", "amenity": "pharmacy", "name": "Max-Weber-Platz-Apotheke"}},{"type": "Feature", "geometry": {"type":"Point","coordinates":[11.597465,48.1345129]}, "properties": {"osm_id": 447519568, "osm_type": "nodes", "amenity": "pharmacy", "name": "Max-Weber-Platz-Apotheke"}},{"type": "Feature", "geometry": {"type":"Point","coordinates":[11.4887064,48.1410852]}, "properties": {"osm_id": 2495954403, "osm_type": "nodes", "amenity": "pharmacy", "name": "Apotheke am Willibaldplatz"}},{"type": "Feature", "geometry": {"type":"Point","coordinates":[11.5033778,48.1349573]}, "properties": {"osm_id": 616681961, "osm_type": "nodes", "amenity": "pharmacy", "name": "Hahnen Apotheke"}},{"type": "Feature", "geometry": {"type":"Point","coordinates":[11.5031056,48.1272653]}, "properties": {"osm_id": 939517972, "osm_type": "nodes", "amenity": "pharmacy", "name": "ST Hedwig Apotheke"}},{"type": "Feature", "geometry": {"type":"Point","coordinates":[11.5033755,48.1384289]}, "properties": {"osm_id": 1528208269, "osm_type": "nodes", "amenity": "pharmacy", "name": "Gloria Apotheke"}},{"type": "Feature", "geometry": {"type":"Point","coordinates":[11.5028644,48.1400338]}, "properties": {"osm_id": 1528230607, "osm_type": "nodes", "amenity": "pharmacy", "name": "St. Ulrichs Apotheke"}},{"type": "Feature", "geometry": {"type":"Point","coordinates":[11.5026836,48.1367652]}, "properties": {"osm_id": 1528206790, "osm_type": "nodes", "amenity": "pharmacy", "name": "Stefans Apotheke"}},{"type": "Feature", "geometry": {"type":"Point","coordinates":[11.5026612,48.1358716]}, "properties": {"osm_id": 8395502887, "osm_type": "nodes", "amenity": "pharmacy", "name": "Bienen Apotheke"}},{"type": "Feature", "geometry": {"type":"Point","coordinates":[11.6443376,48.1263572]}, "properties": {"osm_id": 1578183401, "osm_type": "nodes", "amenity": "pharmacy", "name": "Meiersche Apotheke"}},{"type": "Feature", "geometry": {"type":"Point","coordinates":[11.6462731,48.1282544]}, "properties": {"osm_id": 316757171, "osm_type": "nodes", "amenity": "pharmacy", "name": "St. Veit Apotheke"}},{"type": "Feature", "geometry": {"type":"Point","coordinates":[11.5120857,48.1393558]}, "properties": {"osm_id": 939553859, "osm_type": "nodes", "amenity": "pharmacy", "name": "Agnes-Bernauer-Apotheke"}},{"type": "Feature", "geometry": {"type":"Point","coordinates":[11.5031098,48.1119018]}, "properties": {"osm_id": 677214277, "osm_type": "nodes", "amenity": "pharmacy", "name": "Richard-Wagner-Apotheke"}},{"type": "Feature", "geometry": {"type":"Point","coordinates":[11.4836483,48.1192996]}, "properties": {"osm_id": 1716873230, "osm_type": "nodes", "amenity": "pharmacy", "name": "Apotheke am Guardinipark"}},{"type": "Feature", "geometry": {"type":"Point","coordinates":[11.5562737,48.0907059]}, "properties": {"osm_id": 135751208, "osm_type": "nodes", "amenity": "pharmacy", "name": "Rondell Apotheke"}},{"type": "Feature", "geometry": {"type":"Point","coordinates":[11.5308112,48.0925937]}, "properties": {"osm_id": 2396223708, "osm_type": "nodes", "amenity": "pharmacy", "name": "Mary's Apotheke Südseite"}},{"type": "Feature", "geometry": {"type":"Point","coordinates":[11.5256709,48.0776771]}, "properties": {"osm_id": 2327966729, "osm_type": "nodes", "amenity": "pharmacy", "name": "Forellen-Apotheke"}},{"type": "Feature", "geometry": {"type":"Point","coordinates":[11.6240139,48.1203598]}, "properties": {"osm_id": 444004216, "osm_type": "nodes", "amenity": "pharmacy", "name": "aquila Apotheke"}},{"type": "Feature", "geometry": {"type":"Point","coordinates":[11.5993523,48.128516]}, "properties": {"osm_id": 263887382, "osm_type": "nodes", "amenity": "pharmacy", "name": "Weißenburger Apotheke"}},{"type": "Feature", "geometry": {"type":"Point","coordinates":[11.5259312,48.1114008]}, "properties": {"osm_id": 705912027, "osm_type": "nodes", "amenity": "pharmacy", "name": "St. Morus Apotheke"}},{"type": "Feature", "geometry": {"type":"Point","coordinates":[11.6134691,48.1364297]}, "properties": {"osm_id": 1979050698, "osm_type": "nodes", "amenity": "pharmacy", "name": "Bienen-Apotheke"}},{"type": "Feature", "geometry": {"type":"Point","coordinates":[11.6403849,48.1467157]}, "properties": {"osm_id": 295095058, "osm_type": "nodes", "amenity": "pharmacy", "name": "Quellen-Apotheke"}},{"type": "Feature", "geometry": {"type":"Point","coordinates":[11.5279936,48.080949]}, "properties": {"osm_id": 722326247, "osm_type": "nodes", "amenity": "pharmacy", "name": "Ludwigshöher Apotheke"}},{"type": "Feature", "geometry": {"type":"Point","coordinates":[11.5279638,48.1207166]}, "properties": {"osm_id": 313284024, "osm_type": "nodes", "amenity": "pharmacy", "name": "Bären-Apotheke"}},{"type": "Feature", "geometry": {"type":"Point","coordinates":[11.5277295,48.099992]}, "properties": {"osm_id": 429919192, "osm_type": "nodes", "amenity": "pharmacy", "name": "Mary's Apotheke"}},{"type": "Feature", "geometry": {"type":"Point","coordinates":[11.6066047,48.201827]}, "properties": {"osm_id": 261823346, "osm_type": "nodes", "amenity": "pharmacy", "name": "Heide-Markt-Apotheke"}},{"type": "Feature", "geometry": {"type":"Point","coordinates":[11.6406721,48.1461933]}, "properties": {"osm_id": 289400347, "osm_type": "nodes", "amenity": "pharmacy", "name": "Atrium Apotheke"}},{"type": "Feature", "geometry": {"type":"Point","coordinates":[11.5861303,48.1989991]}, "properties": {"osm_id": 1401226369, "osm_type": "nodes", "amenity": "pharmacy", "name": "Brunnen-Apotheke"}},{"type": "Feature", "geometry": {"type":"Point","coordinates":[11.5863458,48.2023583]}, "properties": {"osm_id": 905586680, "osm_type": "nodes", "amenity": "pharmacy", "name": "Efeu Apotheke"}},{"type": "Feature", "geometry": {"type":"Point","coordinates":[11.5678436,48.1615311]}, "properties": {"osm_id": 247675874, "osm_type": "nodes", "amenity": "pharmacy", "name": "St.-Kilian-Apotheke"}},{"type": "Feature", "geometry": {"type":"Point","coordinates":[11.564161,48.1708729]}, "properties": {"osm_id": 427540591, "osm_type": "nodes", "amenity": "pharmacy", "name": "Lerchenapotheke"}},{"type": "Feature", "geometry": {"type":"Point","coordinates":[11.6347935,48.1685678]}, "properties": {"osm_id": 313621955, "osm_type": "nodes", "amenity": "pharmacy", "name": "Centaurus Apotheke"}},{"type": "Feature", "geometry": {"type":"Point","coordinates":[11.6904284,48.1318917]}, "properties": {"osm_id": 1742791497, "osm_type": "nodes", "amenity": "pharmacy", "name": "Sani-Plus-Apotheke"}},{"type": "Feature", "geometry": {"type":"Point","coordinates":[11.6445861,48.168058]}, "properties": {"osm_id": 339295865, "osm_type": "nodes", "amenity": "pharmacy", "name": "Wolfgang-Amadeus-Apotheke"}},{"type": "Feature", "geometry": {"type":"Point","coordinates":[11.5839042,48.1962036]}, "properties": {"osm_id": 5213055030, "osm_type": "nodes", "amenity": "pharmacy", "name": "Apostel Apotheke"}},{"type": "Feature", "geometry": {"type":"Point","coordinates":[11.5678863,48.2096458]}, "properties": {"osm_id": 389457971, "osm_type": "nodes", "amenity": "pharmacy", "name": "Baum-Apotheke"}},{"type": "Feature", "geometry": {"type":"Point","coordinates":[11.6015969,48.1402067]}, "properties": {"osm_id": 307535921, "osm_type": "nodes", "amenity": "pharmacy", "name": "Troger Apotheke"}},{"type": "Feature", "geometry": {"type":"Point","coordinates":[11.6088087,48.1364037]}, "properties": {"osm_id": 310568608, "osm_type": "nodes", "amenity": "pharmacy", "name": "Grillparzer-Apotheke"}},{"type": "Feature", "geometry": {"type":"Point","coordinates":[11.5377505,48.1357149]}, "properties": {"osm_id": 335708364, "osm_type": "nodes", "amenity": "pharmacy", "name": "Gollierplatz-Apotheke"}},{"type": "Feature", "geometry": {"type":"Point","coordinates":[11.5327233,48.1399024]}, "properties": {"osm_id": 1102436623, "osm_type": "nodes", "amenity": "pharmacy", "name": "Apotheke am Hauptzollamt"}},{"type": "Feature", "geometry": {"type":"Point","coordinates":[11.603715,48.1289741]}, "properties": {"osm_id": 263829646, "osm_type": "nodes", "amenity": "pharmacy", "name": "Ostbahnhof Apotheke"}},{"type": "Feature", "geometry": {"type":"Point","coordinates":[11.602067,48.1295037]}, "properties": {"osm_id": 264680685, "osm_type": "nodes", "amenity": "pharmacy", "name": "St. Johannis Apotheke"}},{"type": "Feature", "geometry": {"type":"Point","coordinates":[11.5445475,48.1339035]}, "properties": {"osm_id": 266622180, "osm_type": "nodes", "amenity": "pharmacy", "name": "Kugelapotheke"}},{"type": "Feature", "geometry": {"type":"Point","coordinates":[11.5400994,48.1357516]}, "properties": {"osm_id": 1144032870, "osm_type": "nodes", "amenity": "pharmacy", "name": "Ganghofer-Apotheke"}},{"type": "Feature", "geometry": {"type":"Point","coordinates":[11.5348087,48.1374999]}, "properties": {"osm_id": 315259047, "osm_type": "nodes", "amenity": "pharmacy", "name": "St. Rupertus-Apotheke"}},{"type": "Feature", "geometry": {"type":"Point","coordinates":[11.5333322,48.1164917]}, "properties": {"osm_id": 1741222739, "osm_type": "nodes", "amenity": "pharmacy", "name": "Hellas Apotheke"}},{"type": "Feature", "geometry": {"type":"Point","coordinates":[11.5198437,48.0992554]}, "properties": {"osm_id": 87636374, "osm_type": "nodes", "amenity": "pharmacy", "name": "Olympia-Apotheke"}},{"type": "Feature", "geometry": {"type":"Point","coordinates":[11.606389,48.1402895]}, "properties": {"osm_id": 325928450, "osm_type": "nodes", "amenity": "pharmacy", "name": "St. Gabriel Apotheke"}},{"type": "Feature", "geometry": {"type":"Point","coordinates":[11.4766858,48.1258345]}, "properties": {"osm_id": 1709161468, "osm_type": "nodes", "amenity": "pharmacy", "name": "Blumenau Apotheke"}},{"type": "Feature", "geometry": {"type":"Point","coordinates":[11.4985976,48.0942519]}, "properties": {"osm_id": 1741354276, "osm_type": "nodes", "amenity": "pharmacy", "name": "Kristall Apotheke"}},{"type": "Feature", "geometry": {"type":"Point","coordinates":[11.4881884,48.1299419]}, "properties": {"osm_id": 677195639, "osm_type": "nodes", "amenity": "pharmacy", "name": "Senftenauer Apotheke"}},{"type": "Feature", "geometry": {"type":"Point","coordinates":[11.499441,48.1334574]}, "properties": {"osm_id": 939517982, "osm_type": "nodes", "amenity": "pharmacy", "name": "Maximilian Apotheke"}},{"type": "Feature", "geometry": {"type":"Point","coordinates":[11.4956844,48.0954144]}, "properties": {"osm_id": 5255943193, "osm_type": "nodes", "amenity": "pharmacy", "name": "Ritterapotheke"}},{"type": "Feature", "geometry": {"type":"Point","coordinates":[11.445079,48.138514]}, "properties": {"osm_id": 277718280, "osm_type": "nodes", "amenity": "pharmacy", "name": "Maria-Eich-Apotheke"}},{"type": "Feature", "geometry": {"type":"Polygon","coordinates":[[[11.5863246,48.1619231],[11.5863742,48.1619153],[11.5863889,48.1619604],[11.5863385,48.1619666],[11.5863246,48.1619231]]]}, "properties": {"osm_id": 365525201, "osm_type": "ways_poly", "amenity": "pharmacy", "name": "Apotheke zur Münchner Freiheit"}},{"type": "Feature", "geometry": {"type":"Polygon","coordinates":[[[11.6040885,48.1276612],[11.6041415,48.1276255],[11.6042971,48.1277285],[11.6042442,48.1277642],[11.6040885,48.1276612]]]}, "properties": {"osm_id": 279754716, "osm_type": "ways_poly", "amenity": "pharmacy", "name": "Welfen-Apotheke"}},{"type": "Feature", "geometry": {"type":"Polygon","coordinates":[[[11.5748294,48.137251],[11.5750557,48.1372221],[11.5750779,48.1372763],[11.5748404,48.1372843],[11.5748294,48.137251]]]}, "properties": {"osm_id": 401624218, "osm_type": "ways_poly", "amenity": "pharmacy", "name": "Kranich Apotheke"}},{"type": "Feature", "geometry": {"type":"Polygon","coordinates":[[[11.4639739,48.1476833],[11.4641721,48.1476223],[11.4642213,48.1476942],[11.4642707,48.1477664],[11.4640702,48.1478271],[11.4640088,48.1477432],[11.4639739,48.1476833]]]}, "properties": {"osm_id": 326530861, "osm_type": "ways_poly", "amenity": "pharmacy", "name": "SaniPlus"}},{"type": "Feature", "geometry": {"type":"Polygon","coordinates":[[[11.5653676,48.1386605],[11.5657024,48.1386415],[11.5657395,48.1389321],[11.5654548,48.1389483],[11.5654385,48.1388201],[11.5653883,48.1388229],[11.5653811,48.1387661],[11.5653676,48.1386605]]]}, "properties": {"osm_id": 271129783, "osm_type": "ways_poly", "amenity": "pharmacy", "name": "Dr. Beckers Central Apotheke"}},{"type": "Feature", "geometry": {"type":"Polygon","coordinates":[[[11.5402935,48.1611407],[11.5403575,48.1611044],[11.5404289,48.1611045],[11.5405738,48.1612125],[11.5405255,48.1612375],[11.5404149,48.1612256],[11.5403179,48.1611574],[11.5402935,48.1611407]]]}, "properties": {"osm_id": 1235575665, "osm_type": "ways_poly", "amenity": "pharmacy", "name": "Heideck-Apotheke"}},{"type": "Feature", "geometry": {"type":"Polygon","coordinates":[[[11.5089875,48.1283266],[11.5090876,48.1283141],[11.5091385,48.1284903],[11.5090389,48.1285033],[11.5089875,48.1283266]]]}, "properties": {"osm_id": 61500460, "osm_type": "ways_poly", "amenity": "pharmacy", "name": "Droste-Hülshoff-Apotheke"}},{"type": "Feature", "geometry": {"type":"Polygon","coordinates":[[[11.509544,48.1348407],[11.5095574,48.1348408],[11.509557,48.1348224],[11.5096718,48.1348223],[11.5096724,48.1349066],[11.5096722,48.134932],[11.5096734,48.1349658],[11.5096087,48.1349652],[11.5095694,48.1349655],[11.5095544,48.1349589],[11.5095457,48.1349441],[11.5095444,48.1348943],[11.509544,48.1348407]]]}, "properties": {"osm_id": 237673903, "osm_type": "ways_poly", "amenity": "pharmacy", "name": "Karwendel-Apotheke"}},{"type": "Feature", "geometry": {"type":"Polygon","coordinates":[[[11.5904032,48.1306305],[11.5905076,48.1304601],[11.5905927,48.1305639],[11.5906262,48.1306019],[11.5904387,48.1306706],[11.5904032,48.1306305]]]}, "properties": {"osm_id": 339526219, "osm_type": "ways_poly", "amenity": "pharmacy", "name": "Domos-Apotheke"}}]}